{
  "type": "FeatureCollection",
  "features": [
    {
      "type": "Feature",
      "properties": {
        "norad_id": 56759,
        "name": "NVS-01 (IRNSS-1J)",
        "group": "gnss",
        "lat": NaN,
        "lon": NaN,
        "alt_km": NaN,
        "timestamp": "2025-12-01T03:12:44.514053+00:00",
        "meta": {
          "OBJECT_NAME": "NVS-01 (IRNSS-1J)",
          "OBJECT_ID": "2023-076A",
          "EPOCH": "2025-11-30T19:35:44.952000",
          "MEAN_MOTION": 1.00268789,
          "ECCENTRICITY": 0.0008465,
          "INCLINATION": 2.6504,
          "RA_OF_ASC_NODE": 252.0362,
          "ARG_OF_PERICENTER": 5.1432,
          "MEAN_ANOMALY": 236.2786,
          "EPHEMERIS_TYPE": 0,
          "CLASSIFICATION_TYPE": "U",
          "NORAD_CAT_ID": 56759,
          "ELEMENT_SET_NO": 999,
          "REV_AT_EPOCH": 912,
          "BSTAR": 0,
          "MEAN_MOTION_DOT": -3.13e-06,
          "MEAN_MOTION_DDOT": 0
        }
      },
      "geometry": {
        "type": "Point",
        "coordinates": [
          NaN,
          NaN
        ]
      }
    },
    {
      "type": "Feature",
      "properties": {
        "norad_id": 62850,
        "name": "NVS-02 (IRNSS-1K)",
        "group": "gnss",
        "lat": NaN,
        "lon": NaN,
        "alt_km": NaN,
        "timestamp": "2025-12-01T03:12:44.514914+00:00",
        "meta": {
          "OBJECT_NAME": "NVS-02 (IRNSS-1K)",
          "OBJECT_ID": "2025-020A",
          "EPOCH": "2025-11-30T14:24:05.394816",
          "MEAN_MOTION": 2.17582193,
          "ECCENTRICITY": 0.7348342,
          "INCLINATION": 21.0141,
          "RA_OF_ASC_NODE": 332.0461,
          "ARG_OF_PERICENTER": 18.3616,
          "MEAN_ANOMALY": 358.1894,
          "EPHEMERIS_TYPE": 0,
          "CLASSIFICATION_TYPE": "U",
          "NORAD_CAT_ID": 62850,
          "ELEMENT_SET_NO": 999,
          "REV_AT_EPOCH": 665,
          "BSTAR": 0.00017358,
          "MEAN_MOTION_DOT": 3.63e-06,
          "MEAN_MOTION_DDOT": 0
        }
      },
      "geometry": {
        "type": "Point",
        "coordinates": [
          NaN,
          NaN
        ]
      }
    }
  ]
}