NVS-01 (IRNSS-1J)       
1 56759U 23076A   25334.81649250 -.00000313  00000+0  00000+0 0  9998
2 56759   2.6504 252.0362 0008465   5.1432 236.2786  1.00268789  9126
NVS-02 (IRNSS-1K)       
1 62850U 25020A   25334.60006244  .00000363  00000+0  17358-3 0  9997
2 62850  21.0141 332.0461 7348342  18.3616 358.1894  2.17582193  6650
